OBJECT_NAME,OBJECT_ID,EPOCH,MEAN_MOTION,ECCENTRICITY,INCLINATION,RA_OF_ASC_NODE,ARG_OF_PERICENTER,MEAN_ANOMALY,EPHEMERIS_TYPE,CLASSIFICATION_TYPE,NORAD_CAT_ID,ELEMENT_SET_NO,REV_AT_EPOCH,BSTAR,MEAN_MOTION_DOT,MEAN_MOTION_DDOT
IRIDIUM 163,2018-061G,2026-07-13T12:22:02.428032,14.34217599,.0002151,86.3937,45.7087,85.6258,274.5184,0,U,43575,999,41715,.26363E-4,.94E-6,0
IRIDIUM 156,2018-061H,2026-07-13T00:02:14.475552,14.34217488,.00020753,86.3936,45.9308,91.5811,268.5623,0,U,43576,999,41707,.1431614E-4,.6E-6,0
IRIDIUM 164,2018-061J,2026-07-13T12:58:34.644000,14.34217842,.0002307,86.3938,45.7464,89.0813,271.0647,0,U,43577,999,41719,.45624E-4,.148E-5,0
IRIDIUM 159,2018-061K,2026-07-13T12:12:54.429984,14.34217161,.0002031,86.3934,45.6958,84.8808,275.2620,0,U,43578,999,41715,.11916E-6,.2E-6,0
IRIDIUM 180,2019-002A,2026-07-13T10:31:43.020768,14.34218051,.0002194,86.3990,342.6231,90.8391,269.3056,0,U,43922,999,39275,.31904E-4,.109E-5,0
IRIDIUM 176,2019-002B,2026-07-13T11:06:08.432640,14.72247791,.0002342,86.6109,342.5528,89.7873,270.3613,0,U,43923,999,40311,.61607E-4,.413E-5,0
IRIDIUM 168,2019-002C,2026-07-13T12:03:02.823264,14.34217044,.0002239,86.3991,342.6745,92.3880,267.7573,0,U,43924,999,39274,.42225E-5,.32E-6,0
IRIDIUM 173,2019-002D,2026-07-13T11:44:46.923936,14.34216738,.0001999,86.3986,342.5680,91.6475,268.4949,0,U,43925,999,39272,-.35373E-4,-.79E-6,0
IRIDIUM 169,2019-002E,2026-07-13T11:23:36.862944,14.38613085,.0001833,86.4219,14.1994,101.8588,258.2816,0,U,43926,999,39400,.40206E-5,.32E-6,0
IRIDIUM 172,2019-002F,2026-07-13T11:35:38.994144,14.34217575,.0002184,86.3986,342.5781,90.5435,269.6011,0,U,43927,999,39273,.69627E-5,.39E-6,0
IRIDIUM 175,2019-002G,2026-07-13T04:47:15.640512,14.43626590,.00052277,86.4512,279.6484,119.2126,240.9599,0,U,43928,999,40273,.46764787E-4,.179E-5,0
IRIDIUM 171,2019-002H,2026-07-13T11:08:14.961984,14.34217544,.000222,86.3996,342.8951,95.0461,265.0988,0,U,43929,999,39272,.61576E-5,.37E-6,0
IRIDIUM 170,2019-002J,2026-07-13T11:15:01.575936,14.72248364,.0002287,86.6108,342.5524,86.1535,273.9943,0,U,43930,999,40312,.61879E-4,.415E-5,0
IRIDIUM 167,2019-002K,2026-07-13T10:59:06.948384,14.34217687,.0002266,86.3989,342.6115,98.9821,261.1631,0,U,43931,999,39272,.89616E-5,.45E-6,0
IRIDIUM 181,2023-068S,2026-07-13T12:30:10.116288,14.43311699,.0002406,86.4475,45.7783,83.7767,276.3708,0,U,56726,999,16623,.48384E-4,.183E-5,0
IRIDIUM 177,2023-068T,2026-07-13T10:03:33.850656,14.80028849,.0002141,86.1984,316.3369,94.2852,265.8614,0,U,56727,999,17024,.72199E-4,.573E-5,0
IRIDIUM 174,2023-068U,2026-07-13T10:57:07.358688,14.72256916,.0002013,86.6117,342.7076,86.2202,273.9245,0,U,56728,999,16988,.63614E-4,.426E-5,0
IRIDIUM 178,2023-068V,2026-07-13T11:25:04.323072,14.80025671,.0002318,86.6534,14.3719,90.4956,269.6531,0,U,56729,999,17025,.21609E-4,.19E-5,0
IRIDIUM 179,2023-068W,2026-07-13T11:17:22.291296,14.80033449,.0002345,86.6767,23.4317,93.8388,266.3101,0,U,56730,999,17025,.6229E-4,.497E-5,0
